[{"OBJECT_NAME":"STARLINK-1199","OBJECT_ID":"2020-012Z","EPOCH":"2026-03-09T06:13:25.788000","MEAN_MOTION":15.29352067,"ECCENTRICITY":0.00016231,"INCLINATION":53.1569,"RA_OF_ASC_NODE":25.8332,"ARG_OF_PERICENTER":88.0191,"MEAN_ANOMALY":272.0995,"EPHEMERIS_TYPE":0,"CLASSIFICATION_TYPE":"U","NORAD_CAT_ID":45201,"ELEMENT_SET_NO":999,"REV_AT_EPOCH":33509,"BSTAR":-5.8258613e-5,"MEAN_MOTION_DOT":-2.037e-5,"MEAN_MOTION_DDOT":0},{"OBJECT_NAME":"NUSAT-49 (KLARA DAN VON NEUMANN)","OBJECT_ID":"2024-149AJ","EPOCH":"2026-03-09T19:09:16.004160","MEAN_MOTION":15.30828857,"ECCENTRICITY":0.00011321,"INCLINATION":97.3807,"RA_OF_ASC_NODE":150.738,"ARG_OF_PERICENTER":286.7761,"MEAN_ANOMALY":73.3356,"EPHEMERIS_TYPE":0,"CLASSIFICATION_TYPE":"U","NORAD_CAT_ID":60500,"ELEMENT_SET_NO":999,"REV_AT_EPOCH":8693,"BSTAR":0.00043568345,"MEAN_MOTION_DOT":0.00012912,"MEAN_MOTION_DDOT":0}]
